[
  {
    "OBJECT_NAME": "STARLINK-34817",
    "OBJECT_ID": "25190M",
    "EPOCH": "2025-11-11T07:00:51.244128",
    "MEAN_MOTION": 15.30230925,
    "ECCENTRICITY": 0.0001202,
    "INCLINATION": 53.16,
    "RA_OF_ASC_NODE": 358.4314,
    "ARG_OF_PERICENTER": 87.4746,
    "MEAN_ANOMALY": 272.6392,
    "EPHEMERIS_TYPE": 0,
    "CLASSIFICATION_TYPE": "U",
    "NORAD_CAT_ID": 65362,
    "ELEMENT_SET_NO": 999,
    "REV_AT_EPOCH": 1162,
    "BSTAR": 0.0016407,
    "MEAN_MOTION_DOT": 0.00048598,
    "MEAN_MOTION_DDOT": 0.0,
    "TLE_LINE1": "1 65362U 25190M   25315.29225977  .00048598  00000+0  16407-2 0  9991",
    "TLE_LINE2": "2 65362  53.1600 358.4314 0001202  87.4746 272.6392 15.30230925 11629",
    "COMMENT": "Grouped by shell and plane from TLE"
  },
  {
    "OBJECT_NAME": "STARLINK-34797",
    "OBJECT_ID": "25190N",
    "EPOCH": "2025-11-11T06:30:27.809280",
    "MEAN_MOTION": 15.30207403,
    "ECCENTRICITY": 9.11e-05,
    "INCLINATION": 53.1601,
    "RA_OF_ASC_NODE": 358.3039,
    "ARG_OF_PERICENTER": 54.0346,
    "MEAN_ANOMALY": 306.074,
    "EPHEMERIS_TYPE": 0,
    "CLASSIFICATION_TYPE": "U",
    "NORAD_CAT_ID": 65363,
    "ELEMENT_SET_NO": 999,
    "REV_AT_EPOCH": 1162,
    "BSTAR": 0.0016578,
    "MEAN_MOTION_DOT": 0.00049075,
    "MEAN_MOTION_DDOT": 0.0,
    "TLE_LINE1": "1 65363U 25190N   25315.27115520  .00049075  00000+0  16578-2 0  9992",
    "TLE_LINE2": "2 65363  53.1601 358.3039 0000911  54.0346 306.0740 15.30207403 11620",
    "COMMENT": "Grouped by shell and plane from TLE"
  },
  {
    "OBJECT_NAME": "STARLINK-34729",
    "OBJECT_ID": "25190P",
    "EPOCH": "2025-11-11T03:04:07.314816",
    "MEAN_MOTION": 15.3019803,
    "ECCENTRICITY": 0.0001205,
    "INCLINATION": 53.1618,
    "RA_OF_ASC_NODE": 358.8314,
    "ARG_OF_PERICENTER": 85.1117,
    "MEAN_ANOMALY": 275.0022,
    "EPHEMERIS_TYPE": 0,
    "CLASSIFICATION_TYPE": "U",
    "NORAD_CAT_ID": 65364,
    "ELEMENT_SET_NO": 999,
    "REV_AT_EPOCH": 1202,
    "BSTAR": 0.0012002,
    "MEAN_MOTION_DOT": 0.00035354,
    "MEAN_MOTION_DDOT": 0.0,
    "TLE_LINE1": "1 65364U 25190P   25315.12786244  .00035354  00000+0  12002-2 0  9997",
    "TLE_LINE2": "2 65364  53.1618 358.8314 0001205  85.1117 275.0022 15.30198030 12026",
    "COMMENT": "Grouped by shell and plane from TLE"
  },
  {
    "OBJECT_NAME": "STARLINK-34710",
    "OBJECT_ID": "25190Q",
    "EPOCH": "2025-11-11T07:03:53.957664",
    "MEAN_MOTION": 15.30205663,
    "ECCENTRICITY": 7.47e-05,
    "INCLINATION": 53.158,
    "RA_OF_ASC_NODE": 358.4532,
    "ARG_OF_PERICENTER": 53.4225,
    "MEAN_ANOMALY": 306.6845,
    "EPHEMERIS_TYPE": 0,
    "CLASSIFICATION_TYPE": "U",
    "NORAD_CAT_ID": 65365,
    "ELEMENT_SET_NO": 999,
    "REV_AT_EPOCH": 1115,
    "BSTAR": 0.00069814,
    "MEAN_MOTION_DOT": 0.00020378,
    "MEAN_MOTION_DDOT": 0.0,
    "TLE_LINE1": "1 65365U 25190Q   25315.29437451  .00020378  00000+0  69814-3 0  9993",
    "TLE_LINE2": "2 65365  53.1580 358.4532 0000747  53.4225 306.6845 15.30205663 11159",
    "COMMENT": "Grouped by shell and plane from TLE"
  },
  {
    "OBJECT_NAME": "STARLINK-34943",
    "OBJECT_ID": "25190R",
    "EPOCH": "2025-11-11T06:50:13.079904",
    "MEAN_MOTION": 15.302114,
    "ECCENTRICITY": 0.0001426,
    "INCLINATION": 53.1587,
    "RA_OF_ASC_NODE": 358.3891,
    "ARG_OF_PERICENTER": 82.4166,
    "MEAN_ANOMALY": 277.6997,
    "EPHEMERIS_TYPE": 0,
    "CLASSIFICATION_TYPE": "U",
    "NORAD_CAT_ID": 65366,
    "ELEMENT_SET_NO": 999,
    "REV_AT_EPOCH": 1115,
    "BSTAR": 0.00047295,
    "MEAN_MOTION_DOT": 0.00013679,
    "MEAN_MOTION_DDOT": 0.0,
    "TLE_LINE1": "1 65366U 25190R   25315.28487361  .00013679  00000+0  47295-3 0  9993",
    "TLE_LINE2": "2 65366  53.1587 358.3891 0001426  82.4166 277.6997 15.30211400 11156",
    "COMMENT": "Grouped by shell and plane from TLE"
  },
  {
    "OBJECT_NAME": "STARLINK-34946",
    "OBJECT_ID": "25190S",
    "EPOCH": "2025-11-11T06:31:58.515456",
    "MEAN_MOTION": 15.30249483,
    "ECCENTRICITY": 0.0002049,
    "INCLINATION": 53.1604,
    "RA_OF_ASC_NODE": 358.3038,
    "ARG_OF_PERICENTER": 110.2648,
    "MEAN_ANOMALY": 249.8573,
    "EPHEMERIS_TYPE": 0,
    "CLASSIFICATION_TYPE": "U",
    "NORAD_CAT_ID": 65367,
    "ELEMENT_SET_NO": 999,
    "REV_AT_EPOCH": 1162,
    "BSTAR": 0.0013107,
    "MEAN_MOTION_DOT": 0.00038723,
    "MEAN_MOTION_DDOT": 0.0,
    "TLE_LINE1": "1 65367U 25190S   25315.27220504  .00038723  00000+0  13107-2 0  9998",
    "TLE_LINE2": "2 65367  53.1604 358.3038 0002049 110.2648 249.8573 15.30249483 11622",
    "COMMENT": "Grouped by shell and plane from TLE"
  },
  {
    "OBJECT_NAME": "STARLINK-34259",
    "OBJECT_ID": "25190T",
    "EPOCH": "2025-11-11T06:34:59.411136",
    "MEAN_MOTION": 15.30165498,
    "ECCENTRICITY": 0.0001335,
    "INCLINATION": 53.1595,
    "RA_OF_ASC_NODE": 358.323,
    "ARG_OF_PERICENTER": 56.731,
    "MEAN_ANOMALY": 303.3818,
    "EPHEMERIS_TYPE": 0,
    "CLASSIFICATION_TYPE": "U",
    "NORAD_CAT_ID": 65368,
    "ELEMENT_SET_NO": 999,
    "REV_AT_EPOCH": 1162,
    "BSTAR": 0.0,
    "MEAN_MOTION_DOT": -0.00020141,
    "MEAN_MOTION_DDOT": 0.0,
    "TLE_LINE1": "1 65368U 25190T   25315.27429874 -.00020141  00000+0 -67043-3 0  9996",
    "TLE_LINE2": "2 65368  53.1595 358.3230 0001335  56.7310 303.3818 15.30165498 11624",
    "COMMENT": "Grouped by shell and plane from TLE"
  },
  {
    "OBJECT_NAME": "STARLINK-34913",
    "OBJECT_ID": "25190U",
    "EPOCH": "2025-11-11T06:25:54.235776",
    "MEAN_MOTION": 15.3021325,
    "ECCENTRICITY": 0.0001236,
    "INCLINATION": 53.1608,
    "RA_OF_ASC_NODE": 358.2852,
    "ARG_OF_PERICENTER": 50.7725,
    "MEAN_ANOMALY": 309.3385,
    "EPHEMERIS_TYPE": 0,
    "CLASSIFICATION_TYPE": "U",
    "NORAD_CAT_ID": 65369,
    "ELEMENT_SET_NO": 999,
    "REV_AT_EPOCH": 1162,
    "BSTAR": 0.0034884,
    "MEAN_MOTION_DOT": 0.0010446,
    "MEAN_MOTION_DDOT": 0.0,
    "TLE_LINE1": "1 65369U 25190U   25315.26798884  .00104460  00000+0  34884-2 0  9997",
    "TLE_LINE2": "2 65369  53.1608 358.2852 0001236  50.7725 309.3385 15.30213250 11628",
    "COMMENT": "Grouped by shell and plane from TLE"
  },
  {
    "OBJECT_NAME": "STARLINK-34870",
    "OBJECT_ID": "25190V",
    "EPOCH": "2025-11-11T03:05:38.486688",
    "MEAN_MOTION": 15.30227382,
    "ECCENTRICITY": 8.77e-05,
    "INCLINATION": 53.1612,
    "RA_OF_ASC_NODE": 358.8392,
    "ARG_OF_PERICENTER": 75.6731,
    "MEAN_ANOMALY": 284.4367,
    "EPHEMERIS_TYPE": 0,
    "CLASSIFICATION_TYPE": "U",
    "NORAD_CAT_ID": 65370,
    "ELEMENT_SET_NO": 999,
    "REV_AT_EPOCH": 1113,
    "BSTAR": 0.0014014,
    "MEAN_MOTION_DOT": 0.00041414,
    "MEAN_MOTION_DDOT": 0.0,
    "TLE_LINE1": "1 65370U 25190V   25315.12891767  .00041414  00000+0  14014-2 0  9990",
    "TLE_LINE2": "2 65370  53.1612 358.8392 0000877  75.6731 284.4367 15.30227382 11133",
    "COMMENT": "Grouped by shell and plane from TLE"
  },
  {
    "OBJECT_NAME": "STARLINK-34869",
    "OBJECT_ID": "25190W",
    "EPOCH": "2025-11-11T03:08:40.788096",
    "MEAN_MOTION": 15.30248599,
    "ECCENTRICITY": 0.0001292,
    "INCLINATION": 53.1613,
    "RA_OF_ASC_NODE": 358.848,
    "ARG_OF_PERICENTER": 77.916,
    "MEAN_ANOMALY": 282.1985,
    "EPHEMERIS_TYPE": 0,
    "CLASSIFICATION_TYPE": "U",
    "NORAD_CAT_ID": 65371,
    "ELEMENT_SET_NO": 999,
    "REV_AT_EPOCH": 1160,
    "BSTAR": 0.0021071,
    "MEAN_MOTION_DOT": 0.0006267,
    "MEAN_MOTION_DDOT": 0.0,
    "TLE_LINE1": "1 65371U 25190W   25315.13102764  .00062670  00000+0  21071-2 0  9992",
    "TLE_LINE2": "2 65371  53.1613 358.8480 0001292  77.9160 282.1985 15.30248599 11602",
    "COMMENT": "Grouped by shell and plane from TLE"
  },
  {
    "OBJECT_NAME": "STARLINK-34903",
    "OBJECT_ID": "25190X",
    "EPOCH": "2025-11-11T07:32:36.329568",
    "MEAN_MOTION": 15.30193632,
    "ECCENTRICITY": 0.000132,
    "INCLINATION": 53.1627,
    "RA_OF_ASC_NODE": 357.8527,
    "ARG_OF_PERICENTER": 68.3272,
    "MEAN_ANOMALY": 291.787,
    "EPHEMERIS_TYPE": 0,
    "CLASSIFICATION_TYPE": "U",
    "NORAD_CAT_ID": 65372,
    "ELEMENT_SET_NO": 999,
    "REV_AT_EPOCH": 1163,
    "BSTAR": 0.0020071,
    "MEAN_MOTION_DOT": 0.00059551,
    "MEAN_MOTION_DDOT": 0.0,
    "TLE_LINE1": "1 65372U 25190X   25315.31430937  .00059551  00000+0  20071-2 0  9992",
    "TLE_LINE2": "2 65372  53.1627 357.8527 0001320  68.3272 291.7870 15.30193632 11638",
    "COMMENT": "Grouped by shell and plane from TLE"
  },
  {
    "OBJECT_NAME": "STARLINK-34891",
    "OBJECT_ID": "25190Y",
    "EPOCH": "2025-11-11T06:59:20.228640",
    "MEAN_MOTION": 15.30220173,
    "ECCENTRICITY": 0.0002266,
    "INCLINATION": 53.1604,
    "RA_OF_ASC_NODE": 358.4144,
    "ARG_OF_PERICENTER": 17.8571,
    "MEAN_ANOMALY": 342.2509,
    "EPHEMERIS_TYPE": 0,
    "CLASSIFICATION_TYPE": "U",
    "NORAD_CAT_ID": 65373,
    "ELEMENT_SET_NO": 999,
    "REV_AT_EPOCH": 1110,
    "BSTAR": 0.000853,
    "MEAN_MOTION_DOT": 0.00025006,
    "MEAN_MOTION_DDOT": 0.0,
    "TLE_LINE1": "1 65373U 25190Y   25315.29120635  .00025006  00000+0  85300-3 0  9996",
    "TLE_LINE2": "2 65373  53.1604 358.4144 0002266  17.8571 342.2509 15.30220173 11101",
    "COMMENT": "Grouped by shell and plane from TLE"
  },
  {
    "OBJECT_NAME": "STARLINK-34305",
    "OBJECT_ID": "25190AA",
    "EPOCH": "2025-11-11T02:51:57.642624",
    "MEAN_MOTION": 15.30227578,
    "ECCENTRICITY": 0.0001128,
    "INCLINATION": 53.162,
    "RA_OF_ASC_NODE": 358.7665,
    "ARG_OF_PERICENTER": 90.9094,
    "MEAN_ANOMALY": 269.2036,
    "EPHEMERIS_TYPE": 0,
    "CLASSIFICATION_TYPE": "U",
    "NORAD_CAT_ID": 65375,
    "ELEMENT_SET_NO": 999,
    "REV_AT_EPOCH": 1160,
    "BSTAR": 0.0010066,
    "MEAN_MOTION_DOT": 0.00029597,
    "MEAN_MOTION_DDOT": 0.0,
    "TLE_LINE1": "1 65375U 25190AA  25315.11941716  .00029597  00000+0  10066-2 0  9995",
    "TLE_LINE2": "2 65375  53.1620 358.7665 0001128  90.9094 269.2036 15.30227578 11604",
    "COMMENT": "Grouped by shell and plane from TLE"
  }
]